{
  "type": "FeatureCollection",
  "features": [
    {
      "type": "Feature",
      "properties": {
        "norad_id": 30243,
        "name": "FENGYUN 1C DEB",
        "group": "fengyun-1c-debris",
        "lat": 68.26949253982723,
        "lon": -144.87333033085872,
        "alt_km": 834.0600370311622,
        "timestamp": "2025-12-27T13:34:49.570204+00:00",
        "meta_object_name": "FENGYUN 1C DEB",
        "meta_object_id": "1999-025XC",
        "meta_epoch": "2025-12-26T23:36:24.424992",
        "meta_mean_motion": 14.13042655,
        "meta_eccentricity": 0.0013171,
        "meta_inclination": 98.6927,
        "meta_ra_of_asc_node": 11.9892,
        "meta_arg_of_pericenter": 81.5858,
        "meta_mean_anomaly": 308.1469,
        "meta_ephemeris_type": 0,
        "meta_classification_type": "U",
        "meta_norad_cat_id": 30243,
        "meta_element_set_no": 999,
        "meta_rev_at_epoch": 97480,
        "meta_bstar": 0.00043016,
        "meta_mean_motion_dot": 7.61e-06,
        "meta_mean_motion_ddot": 0,
        "tle_line1": "1 30243U 99025XC  25360.98361603  .00000761  00000+0  43016-3 0  9999",
        "tle_line2": "2 30243  98.6927  11.9892 0013171  81.5858 308.1469 14.13042655974803"
      },
      "geometry": {
        "type": "Point",
        "coordinates": [
          -144.87333033085872,
          68.26949253982723
        ]
      }
    },
    {
      "type": "Feature",
      "properties": {
        "norad_id": 30244,
        "name": "FENGYUN 1C DEB",
        "group": "fengyun-1c-debris",
        "lat": 50.81432545853063,
        "lon": -119.81353484666458,
        "alt_km": 842.463978511104,
        "timestamp": "2025-12-27T13:34:49.570214+00:00",
        "meta_object_name": "FENGYUN 1C DEB",
        "meta_object_id": "1999-025XD",
        "meta_epoch": "2025-12-27T05:26:10.395744",
        "meta_mean_motion": 14.15037642,
        "meta_eccentricity": 0.00090053,
        "meta_inclination": 99.1431,
        "meta_ra_of_asc_node": 251.2335,
        "meta_arg_of_pericenter": 272.2452,
        "meta_mean_anomaly": 211.7858,
        "meta_ephemeris_type": 0,
        "meta_classification_type": "U",
        "meta_norad_cat_id": 30244,
        "meta_element_set_no": 999,
        "meta_rev_at_epoch": 97551,
        "meta_bstar": 0.00041952671,
        "meta_mean_motion_dot": 7.66e-06,
        "meta_mean_motion_ddot": 0,
        "tle_line1": "1 30244U 99025XD  25361.22650921  .00000766  00000+0  41953-3 0  9995",
        "tle_line2": "2 30244  99.1431 251.2335 0009005 272.2452 211.7858 14.15037642975513"
      },
      "geometry": {
        "type": "Point",
        "coordinates": [
          -119.81353484666458,
          50.81432545853063
        ]
      }
    },
    {
      "type": "Feature",
      "properties": {
        "norad_id": 30245,
        "name": "FENGYUN 1C DEB",
        "group": "fengyun-1c-debris",
        "lat": 72.02902950231821,
        "lon": -40.59253516342542,
        "alt_km": 1062.1190000987017,
        "timestamp": "2025-12-27T13:34:49.570224+00:00",
        "meta_object_name": "FENGYUN 1C DEB",
        "meta_object_id": "1999-025XE",
        "meta_epoch": "2025-12-27T06:14:36.489120",
        "meta_mean_motion": 13.79101384,
        "meta_eccentricity": 0.01928491,
        "meta_inclination": 98.8904,
        "meta_ra_of_asc_node": 347.9726,
        "meta_arg_of_pericenter": 211.99,
        "meta_mean_anomaly": 146.9428,
        "meta_ephemeris_type": 0,
        "meta_classification_type": "U",
        "meta_norad_cat_id": 30245,
        "meta_element_set_no": 999,
        "meta_rev_at_epoch": 94894,
        "meta_bstar": 0.00099418094,
        "meta_mean_motion_dot": 1.127e-05,
        "meta_mean_motion_ddot": 0,
        "tle_line1": "1 30245U 99025XE  25361.26014455  .00001127  00000+0  99418-3 0  9997",
        "tle_line2": "2 30245  98.8904 347.9726 0192849 211.9900 146.9428 13.79101384948942"
      },
      "geometry": {
        "type": "Point",
        "coordinates": [
          -40.59253516342542,
          72.02902950231821
        ]
      }
    },
    {
      "type": "Feature",
      "properties": {
        "norad_id": 30246,
        "name": "FENGYUN 1C DEB",
        "group": "fengyun-1c-debris",
        "lat": 80.74648216839074,
        "lon": 32.61797747172924,
        "alt_km": 871.4614864888226,
        "timestamp": "2025-12-27T13:34:49.570234+00:00",
        "meta_object_name": "FENGYUN 1C DEB",
        "meta_object_id": "1999-025XF",
        "meta_epoch": "2025-12-27T08:02:30.786720",
        "meta_mean_motion": 13.37025026,
        "meta_eccentricity": 0.03704165,
        "meta_inclination": 98.6739,
        "meta_ra_of_asc_node": 142.8812,
        "meta_arg_of_pericenter": 63.0963,
        "meta_mean_anomaly": 357.8066,
        "meta_ephemeris_type": 0,
        "meta_classification_type": "U",
        "meta_norad_cat_id": 30246,
        "meta_element_set_no": 999,
        "meta_rev_at_epoch": 92335,
        "meta_bstar": 0.00031557531,
        "meta_mean_motion_dot": 2.11e-06,
        "meta_mean_motion_ddot": 0,
        "tle_line1": "1 30246U 99025XF  25361.33507855  .00000211  00000+0  31558-3 0  9991",
        "tle_line2": "2 30246  98.6739 142.8812 0370416  63.0963 357.8066 13.37025026923359"
      },
      "geometry": {
        "type": "Point",
        "coordinates": [
          32.61797747172924,
          80.74648216839074
        ]
      }
    },
    {
      "type": "Feature",
      "properties": {
        "norad_id": 30247,
        "name": "FENGYUN 1C DEB",
        "group": "fengyun-1c-debris",
        "lat": -20.435346209714435,
        "lon": 85.58458089684315,
        "alt_km": 732.7663377664276,
        "timestamp": "2025-12-27T13:34:49.570244+00:00",
        "meta_object_name": "FENGYUN 1C DEB",
        "meta_object_id": "1999-025XG",
        "meta_epoch": "2025-12-26T17:09:12.019680",
        "meta_mean_motion": 14.59732736,
        "meta_eccentricity": 0.01912316,
        "meta_inclination": 98.2762,
        "meta_ra_of_asc_node": 267.8438,
        "meta_arg_of_pericenter": 308.6541,
        "meta_mean_anomaly": 103.885,
        "meta_ephemeris_type": 0,
        "meta_classification_type": "U",
        "meta_norad_cat_id": 30247,
        "meta_element_set_no": 999,
        "meta_rev_at_epoch": 97486,
        "meta_bstar": 0.0036271723,
        "meta_mean_motion_dot": 0.00022376,
        "meta_mean_motion_ddot": 0,
        "tle_line1": "1 30247U 99025XG  25360.71472245  .00022376  00000+0  36272-2 0  9990",
        "tle_line2": "2 30247  98.2762 267.8438 0191231 308.6541 103.8850 14.59732736974860"
      },
      "geometry": {
        "type": "Point",
        "coordinates": [
          85.58458089684315,
          -20.435346209714435
        ]
      }
    },
    {
      "type": "Feature",
      "properties": {
        "norad_id": 30248,
        "name": "FENGYUN 1C DEB",
        "group": "fengyun-1c-debris",
        "lat": -55.9090961311113,
        "lon": -6.586847051942778,
        "alt_km": 714.5866238873541,
        "timestamp": "2025-12-27T13:34:49.570254+00:00",
        "meta_object_name": "FENGYUN 1C DEB",
        "meta_object_id": "1999-025XH",
        "meta_epoch": "2025-12-26T23:20:22.639200",
        "meta_mean_motion": 14.59674576,
        "meta_eccentricity": 0.002802,
        "meta_inclination": 99.1007,
        "meta_ra_of_asc_node": 186.4624,
        "meta_arg_of_pericenter": 105.9691,
        "meta_mean_anomaly": 254.4596,
        "meta_ephemeris_type": 0,
        "meta_classification_type": "U",
        "meta_norad_cat_id": 30248,
        "meta_element_set_no": 999,
        "meta_rev_at_epoch": 97636,
        "meta_bstar": 0.0045991,
        "meta_mean_motion_dot": 0.00022047,
        "meta_mean_motion_ddot": 0,
        "tle_line1": "1 30248U 99025XH  25360.97248425  .00022047  00000+0  45991-2 0  9993",
        "tle_line2": "2 30248  99.1007 186.4624 0028020 105.9691 254.4596 14.59674576976369"
      },
      "geometry": {
        "type": "Point",
        "coordinates": [
          -6.586847051942778,
          -55.9090961311113
        ]
      }
    },
    {
      "type": "Feature",
      "properties": {
        "norad_id": 30249,
        "name": "FENGYUN 1C DEB",
        "group": "fengyun-1c-debris",
        "lat": -40.69041676389648,
        "lon": -20.67932236530622,
        "alt_km": 719.076359151185,
        "timestamp": "2025-12-27T13:34:49.570264+00:00",
        "meta_object_name": "FENGYUN 1C DEB",
        "meta_object_id": "1999-025XJ",
        "meta_epoch": "2025-12-27T05:08:34.423584",
        "meta_mean_motion": 14.58089901,
        "meta_eccentricity": 0.00270131,
        "meta_inclination": 98.9587,
        "meta_ra_of_asc_node": 166.7379,
        "meta_arg_of_pericenter": 356.2531,
        "meta_mean_anomaly": 180.834,
        "meta_ephemeris_type": 0,
        "meta_classification_type": "U",
        "meta_norad_cat_id": 30249,
        "meta_element_set_no": 999,
        "meta_rev_at_epoch": 97774,
        "meta_bstar": 0.0037606355,
        "meta_mean_motion_dot": 0.00017386,
        "meta_mean_motion_ddot": 0,
        "tle_line1": "1 30249U 99025XJ  25361.21428731  .00017386  00000+0  37606-2 0  9996",
        "tle_line2": "2 30249  98.9587 166.7379 0027013 356.2531 180.8340 14.58089901977746"
      },
      "geometry": {
        "type": "Point",
        "coordinates": [
          -20.67932236530622,
          -40.69041676389648
        ]
      }
    }
  ]
}